     2.100          NAVIGATION                              RINEX VERSION / TYPE
fic2rin                                 04/21/2015 00:14:30 PGM / RUN BY / DATE
                                                            END OF HEADER
 4 15  4 20  8  0  0.0 -.119064934552D-04 -.113686837722D-11  .000000000000D+00
     .200000000000D+02  .137500000000D+01  .568809407481D-08 -.214383886567D+01
     .316649675369D-07  .111675255466D-01  .396184623241D-05  .515369178963D+04
     .115200000000D+06  .158324837685D-06 -.132102512703D+01 -.353902578354D-07
     .939331633630D+00  .289343750000D+03  .105431901788D+01 -.850249702027D-08
     .187864968187D-09  .100000000000D+01  .184100000000D+04  .000000000000D+00
     .240000000000D+01  .000000000000D+00 -.651925802231D-08  .200000000000D+02
     .108006000000D+06  .400000000000D+01
 6 15  4 20  8  0  0.0  .140415504575D-03  .977706804406D-11  .000000000000D+00
     .710000000000D+02  .571875000000D+01  .520700260684D-08 -.127915723815D+00
     .353902578354D-06  .195949687622D-03  .459514558315D-05  .515372281075D+04
     .115200000000D+06 -.279396772385D-07 -.130810439610D+01 -.186264514923D-07
     .961546986783D+00  .292406250000D+03 -.292100821873D+01 -.834320467082D-08
     .110361739867D-09  .100000000000D+01  .184100000000D+04  .000000000000D+00
     .240000000000D+01  .000000000000D+00  .419095158577D-08  .710000000000D+02
     .108006000000D+06  .400000000000D+01
 7 15  4 20  8  0  0.0  .456595793366D-03  .272848410532D-11  .000000000000D+00
     .950000000000D+02  .596875000000D+01  .460483466699D-08 -.252525198935D+01
     .240281224251D-06  .821146683302D-02  .908970832825D-06  .515371905518D+04
     .115200000000D+06 -.745058059692D-07  .186061837171D+01 -.745058059692D-07
     .970289127751D+00  .368812500000D+03 -.275705749741D+01 -.841249327125D-08
     .714315468392D-10  .100000000000D+01  .184100000000D+04  .000000000000D+00
     .340000000000D+01  .000000000000D+00 -.111758708954D-07  .950000000000D+02
     .108006000000D+06  .400000000000D+01
 9 15  4 20  8  0  0.0 -.140803866088D-03 -.784439180279D-11  .000000000000D+00
     .670000000000D+02  .130843750000D+03  .432196574151D-08 -.353707787155D+00
     .669807195663D-05  .452384236269D-03  .102575868368D-04  .515362347794D+04
     .115200000000D+06 -.167638063431D-07  .784043537829D+00 -.335276126862D-07
     .957942090385D+00  .178906250000D+03  .248070456413D+01 -.802497712965D-08
     .167149819604D-09  .100000000000D+01  .184100000000D+04  .000000000000D+00
     .340000000000D+01  .000000000000D+00  .465661287308D-09  .670000000000D+02
     .108006000000D+06  .400000000000D+01
10 15  4 20  8  0  0.0 -.171634368598D-03 -.147792889038D-11  .000000000000D+00
     .140000000000D+02 -.371562500000D+02  .506699677504D-08  .136002110584D+01
    -.178441405296D-05  .146390332375D-01  .112634152174D-04  .515368296051D+04
     .115200000000D+06 -.307336449623D-06 -.250171041611D+00  .447034835815D-07
     .941754581458D+00  .158156250000D+03  .928090913432D+00 -.837499170916D-08
    -.755031450091D-09  .100000000000D+01  .184100000000D+04  .000000000000D+00
     .240000000000D+01  .000000000000D+00 -.279396772385D-08  .140000000000D+02
     .108006000000D+06  .400000000000D+01
11 15  4 20  8  0  0.0 -.572658143938D-03 -.261479726760D-11  .000000000000D+00
     .380000000000D+02  .411250000000D+02  .660991818677D-08 -.246186007559D+01
     .202283263206D-05  .156838113908D-01  .429153442383D-05  .515372247505D+04
     .115200000000D+06  .230967998505D-06 -.164779074983D+01  .428408384323D-07
     .892433998327D+00  .254156250000D+03  .139563443915D+01 -.887358390610D-08
     .577524056195D-09  .100000000000D+01  .184100000000D+04  .000000000000D+00
     .240000000000D+01  .000000000000D+00 -.121071934700D-07  .380000000000D+02
     .108006000000D+06  .400000000000D+01
12 15  4 20  8  0  0.0  .286293681711D-03  .306954461848D-11  .000000000000D+00
     .360000000000D+02 -.116968750000D+03  .350550316113D-08 -.304076597110D+01
    -.605918467045D-05  .553647323977D-02  .977329909801D-05  .515370867538D+04
     .115200000000D+06 -.447034835815D-07  .292876521458D+01 -.372529029846D-07
     .989874898823D+00  .206812500000D+03  .562378243505D+00 -.757817280417D-08
    -.150363406097D-09  .100000000000D+01  .184100000000D+04  .000000000000D+00
     .240000000000D+01  .000000000000D+00 -.121071934700D-07  .360000000000D+02
     .108006000000D+06  .400000000000D+01
13 15  4 20  8  0  0.0 -.107286497951D-03 -.341060513165D-11  .000000000000D+00
     .122000000000D+03  .123968750000D+03  .409409910709D-08 -.177082781301D+01
     .640191137791D-05  .526451354381D-02  .870972871780D-05  .515368960953D+04
     .115200000000D+06 -.987201929092D-07  .898595017838D+00  .800937414169D-07
     .974579032614D+00  .217375000000D+03  .207630384063D+01 -.795961726429D-08
     .191079387795D-09  .100000000000D+01  .184100000000D+04  .000000000000D+00
     .340000000000D+01  .000000000000D+00 -.111758708954D-07  .122000000000D+03
     .108006000000D+06  .400000000000D+01
14 15  4 20  8  0  0.0  .695339404047D-04 -.284217094304D-11  .000000000000D+00
     .510000000000D+02  .129843750000D+03  .432410868791D-08  .104665656019D+00
     .686012208462D-05  .798382225912D-02  .823475420475D-05  .515358744431D+04
     .115200000000D+06 -.104308128357D-06  .864240484571D+00  .150874257088D-06
     .967106387086D+00  .226875000000D+03 -.197753883104D+01 -.816748306560D-08
     .185722021782D-09  .100000000000D+01  .184100000000D+04  .000000000000D+00
     .240000000000D+01  .000000000000D+00 -.931322574615D-08  .510000000000D+02
     .108006000000D+06  .400000000000D+01
15 15  4 20  8  0  0.0 -.244600698352D-03 -.216004991671D-11  .000000000000D+00
     .210000000000D+02  .114625000000D+03  .490877589879D-08 -.537563824742D+00
     .591948628426D-05  .710999767762D-02  .922009348869D-05  .515363443565D+04
     .115200000000D+06  .124797224998D-06  .741340457314D+00  .633299350739D-07
     .933865820586D+00  .188562500000D+03  .391770276473D+00 -.838249202158D-08
     .653598653579D-10  .100000000000D+01  .184100000000D+04  .000000000000D+00
     .240000000000D+01  .000000000000D+00 -.107102096081D-07  .210000000000D+02
     .108006000000D+06  .400000000000D+01
16 15  4 20  8  0  0.0 -.136956106871D-03  .363797880709D-11  .000000000000D+00
     .290000000000D+02 -.123093750000D+03  .355621955939D-08  .110748639091D+01
    -.626593828201D-05  .818706315476D-02  .104364007711D-04  .515354512215D+04
     .115200000000D+06 -.409781932831D-07  .294742650188D+01  .132247805595D-06
     .990434977009D+00  .193906250000D+03  .278218858967D+00 -.769496338325D-08
    -.318584698903D-09  .100000000000D+01  .184100000000D+04  .000000000000D+00
     .240000000000D+01  .000000000000D+00 -.102445483208D-07  .290000000000D+02
     .108006000000D+06  .400000000000D+01
17 15  4 20  8  0  0.0 -.167233403772D-03 -.181898940355D-11  .000000000000D+00
     .660000000000D+02  .105312500000D+02  .432946605392D-08  .207402780781D+00
     .437721610069D-06  .100859821541D-01  .109318643808D-04  .515374923134D+04
     .115200000000D+06 -.856816768646D-07 -.230923377825D+01  .875443220139D-07
     .972018286680D+00  .178531250000D+03 -.201119253584D+01 -.796783189218D-08
     .645026867958D-09  .100000000000D+01  .184100000000D+04  .000000000000D+00
     .240000000000D+01  .000000000000D+00 -.107102096081D-07  .660000000000D+02
     .108006000000D+06  .400000000000D+01
20 15  4 20  8  0  0.0  .312042422593D-03  .375166564481D-11  .000000000000D+00
     .360000000000D+02 -.440937500000D+02  .547951395804D-08  .529832536760D+00
    -.202842056751D-05  .569083867595D-02  .995583832264D-05  .515579153633D+04
     .115200000000D+06 -.670552253723D-07 -.330293806703D+00 -.186264514923D-08
     .926663418451D+00  .170750000000D+03  .122104242100D+01 -.852178353792D-08
    -.696457581682D-09  .100000000000D+01  .184100000000D+04  .000000000000D+00
     .240000000000D+01  .000000000000D+00 -.838190317154D-08  .360000000000D+02
     .108006000000D+06  .400000000000D+01
21 15  4 20  8  0  0.0 -.438342802227D-03 -.375166564481D-11  .000000000000D+00
     .320000000000D+02 -.656250000000D+00  .570880922339D-08  .277942453908D+01
    -.249594449997D-06  .225295294076D-01  .346824526787D-05  .515357257843D+04
     .115200000000D+06  .156462192535D-06 -.132145549558D+01 -.322237610817D-06
     .933332061758D+00  .296343750000D+03 -.191882529711D+01 -.836213403073D-08
    -.350014579512D-10  .100000000000D+01  .184100000000D+04  .000000000000D+00
     .240000000000D+01  .000000000000D+00 -.116415321827D-07  .320000000000D+02
     .108006000000D+06  .400000000000D+01
22 15  4 20  8  0  0.0  .341671518981D-03  .397903932026D-11  .000000000000D+00
     .310000000000D+02 -.234687500000D+02  .548701427045D-08  .125825177014D+01
    -.118277966976D-05  .780349841807D-02  .109914690256D-04  .515369558907D+04
     .115200000000D+06 -.163912773132D-06 -.276565540636D+00  .726431608200D-07
     .923328562101D+00  .152562500000D+03 -.205871484741D+01 -.850321133574D-08
    -.651098549439D-09  .100000000000D+01  .184100000000D+04  .000000000000D+00
     .240000000000D+01  .000000000000D+00 -.176951289177D-07  .310000000000D+02
     .108006000000D+06  .400000000000D+01
23 15  4 20  8  0  0.0 -.103081110865D-03 -.250111042988D-11  .000000000000D+00
     .810000000000D+02  .138625000000D+03  .458054794106D-08 -.988867928421D+00
     .704824924469D-05  .100232103141D-01  .971183180809D-05  .515363718414D+04
     .115200000000D+06  .277534127235D-06  .792996750081D+00 -.521540641785D-07
     .948973194188D+00  .185000000000D+03 -.269729831938D+01 -.815819696451D-08
     .156435087578D-09  .100000000000D+01  .184100000000D+04  .000000000000D+00
     .240000000000D+01  .000000000000D+00 -.200234353542D-07  .810000000000D+02
     .108006000000D+06  .400000000000D+01
